NORAD_CAT_ID,OBJECT_NAME,OBJECT_TYPE,EPOCH,MEAN_MOTION,ECCENTRICITY,INCLINATION,RA_OF_ASC_NODE,ARG_OF_PERICENTER,MEAN_ANOMALY,BSTAR,MEAN_MOTION_DOT,MEAN_MOTION_DDOT,TLE_LINE0,TLE_LINE1,TLE_LINE2,SEMIMAJOR_AXIS,PERIOD,APOGEE,PERIGEE,DECAYED
53590.0,STARLINK-4689,PAYLOAD,2023-06-06 23:38:03,15.08842772,0.000114,53.2175,83.6033,88.5862,271.5261,3.9053e-05,3.34e-06,0.0,0 STARLINK-4689,1 53590U 22104C   23157.98476235  .00000334  00000-0  39053-4 0  9997,2 53590  53.2175  83.6033 0001140  88.5862 271.5261 15.08842772 42940,6917.872,95.437,540.526,538.948,0.0
53590.0,STARLINK-4689,PAYLOAD,2023-06-07 04:24:12,15.08849118,0.0001174,53.2176,82.7108,88.2903,271.8224,8.7176e-05,1.1e-05,0.0,0 STARLINK-4689,1 53590U 22104C   23158.18347650  .00001100  00000-0  87176-4 0  9999,2 53590  53.2176  82.7108 0001174  88.2903 271.8224 15.08849118 42970,6917.853,95.437,540.53,538.905,0.0
53590.0,STARLINK-4689,PAYLOAD,2023-06-07 13:56:31,15.08840983,0.0001906,53.2169,80.9268,112.3317,247.7877,4.7667e-05,4.71e-06,0.0,0 STARLINK-4689,1 53590U 22104C   23158.58092234  .00000471  00000-0  47667-4 0  9999,2 53590  53.2169  80.9268 0001906 112.3317 247.7877 15.08840983 44070,6917.877,95.437,541.061,538.424,0.0
53590.0,STARLINK-4689,PAYLOAD,2023-06-07 20:18:04,15.0883193,0.0001052,53.2177,79.7379,92.2785,267.8327,2.8057e-05,1.59e-06,0.0,0 STARLINK-4689,1 53590U 22104C   23158.84588955  .00000159  00000-0  28057-4 0  9993,2 53590  53.2177  79.7379 0001052  92.2785 267.8327 15.08831930 44115,6917.905,95.438,540.498,539.042,0.0
53590.0,STARLINK-4689,PAYLOAD,2023-06-08 01:04:14,15.0883272,0.0001051,53.2177,78.8465,80.8132,279.2979,3.8748e-05,3.29e-06,0.0,0 STARLINK-4689,1 53590U 22104C   23159.04461012  .00000329  00000-0  38748-4 0  9997,2 53590  53.2177  78.8465 0001051  80.8132 279.2979 15.08832720 43105,6917.903,95.438,540.495,539.041,0.0
53590.0,STARLINK-4689,PAYLOAD,2023-06-09 04:05:48,15.08828589,0.0001165,53.2184,73.7881,85.71,274.4025,-0.00011932,-2.186e-05,0.0,0 STARLINK-4689,1 53590U 22104C   23160.17070116 -.00002186  00000-0 -11932-3 0  9994,2 53590  53.2184  73.7881 0001165  85.7100 274.4025 15.08828589 43279,6917.915,95.438,540.586,538.974,0.0
53590.0,STARLINK-4689,PAYLOAD,2023-06-10 03:56:34,15.08848756,0.0001094,53.218,69.3287,75.3428,284.7685,0.00015556,2.189e-05,0.0,0 STARLINK-4689,1 53590U 22104C   23161.16428285  .00002189  00000-0  15556-3 0  9995,2 53590  53.2180  69.3287 0001094  75.3428 284.7685 15.08848756 43426,6917.854,95.437,540.475,538.962,0.0
53590.0,STARLINK-4689,PAYLOAD,2023-06-10 13:28:54,15.08826429,9.74e-05,53.2178,67.546,46.0757,314.0316,0.00012487,1.699e-05,0.0,0 STARLINK-4689,1 53590U 22104C   23161.56173738  .00001699  00000-0  12487-3 0  9994,2 53590  53.2178  67.5460 0000974  46.0757 314.0316 15.08826429 43489,6917.922,95.438,540.461,539.113,0.0
53590.0,STARLINK-4689,PAYLOAD,2023-06-10 19:50:26,15.08833962,0.0001071,53.2176,66.3564,91.8286,268.2828,0.00017986,2.575e-05,0.0,0 STARLINK-4689,1 53590U 22104C   23161.82669252  .00002575  00000-0  17986-3 0  9997,2 53590  53.2176  66.3564 0001071  91.8286 268.2828 15.08833962 44561,6917.899,95.438,540.505,539.023,0.0
53590.0,STARLINK-4689,PAYLOAD,2023-06-11 00:36:35,15.08839555,0.0001016,53.218,65.4653,81.5887,278.522,0.00022466,3.289e-05,0.0,0 STARLINK-4689,1 53590U 22104C   23162.02540969  .00003289  00000-0  22466-3 0  9995,2 53590  53.2180  65.4653 0001016  81.5887 278.5220 15.08839555 43559,6917.882,95.438,540.45,539.044,0.0
53590.0,STARLINK-4689,PAYLOAD,2023-06-11 13:19:40,15.08839819,0.0001156,53.2175,63.0878,84.8204,275.292,5.4102e-05,5.73e-06,0.0,0 STARLINK-4689,1 53590U 22104C   23162.55533505  .00000573  00000-0  54102-4 0  9997,2 53590  53.2175  63.0878 0001156  84.8204 275.2920 15.08839819 44678,6917.881,95.438,540.546,538.946,0.0
53590.0,STARLINK-4689,PAYLOAD,2023-06-11 19:41:13,15.08846757,0.0001062,53.2176,61.8984,88.2177,271.8937,-8.9357e-06,-4.3e-06,0.0,0 STARLINK-4689,1 53590U 22104C   23162.82029273 -.00000430  00000-0 -89357-5 0  9994,2 53590  53.2176  61.8984 0001062  88.2177 271.8937 15.08846757 44710,6917.86,95.437,540.459,538.99,0.0
53590.0,STARLINK-4689,PAYLOAD,2023-06-12 02:02:45,15.08853656,0.0001069,53.2176,60.7088,88.1693,271.9422,4.8813e-05,4.89e-06,0.0,0 STARLINK-4689,1 53590U 22104C   23163.08524563  .00000489  00000-0  48813-4 0  9998,2 53590  53.2176  60.7088 0001069  88.1693 271.9422 15.08853656 43717,6917.839,95.437,540.443,538.964,0.0
53590.0,STARLINK-4689,PAYLOAD,2023-06-12 09:59:41,15.08850518,0.0001064,53.2177,59.2223,90.201,269.9104,-6.3195e-06,-3.88e-06,0.0,0 STARLINK-4689,1 53590U 22104C   23163.41644696 -.00000388  00000-0 -63195-5 0  9996,2 53590  53.2177  59.2223 0001064  90.2010 269.9104 15.08850518 44803,6917.848,95.437,540.449,538.977,0.0
53590.0,STARLINK-4689,PAYLOAD,2023-06-12 19:32:00,15.08833357,0.0001076,53.2179,57.4379,95.0825,265.029,-5.1457e-06,-3.7e-06,0.0,0 STARLINK-4689,1 53590U 22104C   23163.81389901 -.00000370  00000-0 -51457-5 0  9994,2 53590  53.2179  57.4379 0001076  95.0825 265.0290 15.08833357 43823,6917.901,95.438,540.51,539.021,0.0
53590.0,STARLINK-4689,PAYLOAD,2023-06-13 01:53:33,15.08837435,0.0001054,53.2181,56.2478,93.0449,267.0664,-4.7833e-06,-3.64e-06,0.0,0 STARLINK-4689,1 53590U 22104C   23164.07885598 -.00000364  00000-0 -47833-5 0  9992,2 53590  53.2181  56.2478 0001054  93.0449 267.0664 15.08837435 44907,6917.888,95.438,540.482,539.024,0.0
53590.0,STARLINK-4689,PAYLOAD,2023-06-13 20:58:10,15.08838502,0.0001116,53.218,52.6797,93.8955,266.2165,8.7236e-05,1.101e-05,0.0,0 STARLINK-4689,1 53590U 22104C   23164.87373365  .00001101  00000-0  87236-4 0  9992,2 53590  53.2180  52.6797 0001116  93.8955 266.2165 15.08838502 45026,6917.885,95.438,540.522,538.978,0.0
53590.0,STARLINK-4689,PAYLOAD,2023-06-14 00:08:56,15.08843044,0.0001133,53.2181,52.0841,93.1645,266.9476,0.00011231,1.5e-05,0.0,0 STARLINK-4689,1 53590U 22104C   23165.00621058  .00001500  00000-0  11231-3 0  9997,2 53590  53.2181  52.0841 0001133  93.1645 266.9476 15.08843044 44005,6917.871,95.437,540.52,538.952,0.0
53590.0,STARLINK-4689,PAYLOAD,2023-06-14 22:24:21,15.08823904,0.00012,53.2182,47.9214,91.6142,268.4988,0.00032792,4.933e-05,0.0,0 STARLINK-4689,1 53590U 22104C   23165.93358048  .00004933  00000-0  32792-3 0  9993,2 53590  53.2182  47.9214 0001200  91.6142 268.4988 15.08823904 44146,6917.93,95.439,540.625,538.964,0.0
53590.0,STARLINK-4689,PAYLOAD,2023-06-15 15:53:35,15.08842568,0.000114,53.2184,44.6503,95.3304,264.7818,3.65e-05,2.93e-06,0.0,0 STARLINK-4689,1 53590U 22104C   23166.66221386  .00000293  00000-0  36500-4 0  9995,2 53590  53.2184  44.6503 0001140  95.3304 264.7818 15.08842568 44257,6917.873,95.437,540.526,538.949,0.0
53590.0,STARLINK-4689,PAYLOAD,2023-06-16 09:22:49,15.08847157,0.000116,53.2184,41.3795,93.0429,267.0695,9.8916e-05,1.287e-05,0.0,0 STARLINK-4689,1 53590U 22104C   23167.39084734  .00001287  00000-0  98916-4 0  9993,2 53590  53.2184  41.3795 0001160  93.0429 267.0695 15.08847157 45405,6917.859,95.437,540.526,538.921,0.0
53590.0,STARLINK-4689,PAYLOAD,2023-06-16 15:44:21,15.08844588,0.0001209,53.2183,40.1897,95.5863,264.5267,0.00013253,1.822e-05,0.0,0 STARLINK-4689,1 53590U 22104C   23167.65580735  .00001822  00000-0  13253-3 0  9999,2 53590  53.2183  40.1897 0001209  95.5863 264.5267 15.08844588 45443,6917.866,95.437,540.568,538.895,0.0
53590.0,STARLINK-4689,PAYLOAD,2023-06-17 01:16:40,15.08821779,0.0001157,53.2173,38.4056,77.0331,283.079,0.00068981,0.00010702,0.0,0 STARLINK-4689,1 53590U 22104C   23168.05324641  .00010702  00000-0  68981-3 0  9991,2 53590  53.2173  38.4056 0001157  77.0331 283.0790 15.08821779 44461,6917.936,95.439,540.601,539.001,0.0
53590.0,STARLINK-4689,PAYLOAD,2023-06-17 13:59:46,15.08828214,0.0001093,53.2167,36.0268,90.4823,269.6295,-0.00016221,-2.868e-05,0.0,0 STARLINK-4689,1 53590U 22104C   23168.58317863 -.00002868  00000-0 -16221-3 0  9993,2 53590  53.2167  36.0268 0001093  90.4823 269.6295 15.08828214 44547,6917.916,95.438,540.538,539.025,0.0
53590.0,STARLINK-4689,PAYLOAD,2023-06-17 21:56:42,15.0882634,0.0001231,53.217,34.5405,97.0553,263.0579,-0.00016282,-2.877e-05,0.0,0 STARLINK-4689,1 53590U 22104C   23168.91438166 -.00002877  00000-0 -16282-3 0  9997,2 53590  53.2170  34.5405 0001231  97.0553 263.0579 15.08826340 45636,6917.922,95.438,540.639,538.936,0.0
53590.0,STARLINK-4689,PAYLOAD,2023-06-18 15:25:56,15.08836181,9.96e-05,53.2171,31.2674,93.0869,267.0237,-3.7589e-05,-8.86e-06,0.0,0 STARLINK-4689,1 53590U 22104C   23169.64302050 -.00000886  00000-0 -37589-4 0  9992,2 53590  53.2171  31.2674 0000996  93.0869 267.0237 15.08836181 44708,6917.892,95.438,540.446,539.068,0.0
53590.0,STARLINK-4689,PAYLOAD,2023-06-18 18:36:43,15.08840749,0.000108,53.2177,30.6736,95.4961,264.6155,5.221e-05,5.43e-06,0.0,0 STARLINK-4689,1 53590U 22104C   23169.77549888  .00000543  00000-0  52210-4 0  9994,2 53590  53.2177  30.6736 0001080  95.4961 264.6155 15.08840749 45764,6917.878,95.438,540.49,538.996,0.0
53590.0,STARLINK-4689,PAYLOAD,2023-06-19 00:58:15,15.08848044,0.0001023,53.2173,29.4847,97.4705,262.6403,0.00036803,5.575e-05,0.0,0 STARLINK-4689,1 53590U 22104C   23170.04045831  .00005575  00000-0  36803-3 0  9994,2 53590  53.2173  29.4847 0001023  97.4705 262.6403 15.08848044 44763,6917.856,95.437,540.428,539.013,0.0
53590.0,STARLINK-4689,PAYLOAD,2023-06-19 07:19:48,15.08846927,0.0001007,53.2175,28.2951,95.5109,264.5998,0.00049076,7.533e-05,0.0,0 STARLINK-4689,1 53590U 22104C   23170.30542087  .00007533  00000-0  49076-3 0  9990,2 53590  53.2175  28.2951 0001007  95.5109 264.5998 15.08846927 45845,6917.859,95.437,540.421,539.028,0.0
53590.0,STARLINK-4689,PAYLOAD,2023-06-19 23:13:39,15.08850781,9.84e-05,53.2171,25.3216,98.4697,261.6407,0.00028046,4.18e-05,0.0,0 STARLINK-4689,1 53590U 22104C   23170.96781757  .00004180  00000-0  28046-3 0  9990,2 53590  53.2171  25.3216 0000984  98.4697 261.6407 15.08850781 44902,6917.847,95.437,540.393,539.032,0.0
